COSMOS 2425 (716)       
1 29670U 06062A   21136.44705730  .00000015  00000-0  00000-0 0  9997
2 29670  64.8519 256.5289 0023796 346.0494  89.1418  2.13115504111997
COSMOS 2433 (720)       
1 32275U 07052A   21139.83746328 -.00000054  00000-0  00000-0 0  9990
2 32275  66.0558  17.7357 0001450 287.4363  44.0394  2.13104223105574
COSMOS 2432 (719)       
1 32276U 07052B   21139.24555788 -.00000055  00000-0  00000-0 0  9995
2 32276  66.0695  17.8491 0010799 337.6937 209.0532  2.13103561105568
COSMOS 2434 (721)       
1 32393U 07065A   21140.24018161 -.00000004  00000-0  00000+0 0  9993
2 32393  64.4694 254.8714 0003705  93.5357  75.2078  2.13103117104297
COSMOS 2436 (723)       
1 32395U 07065C   21140.03388898 -.00000003  00000-0  00000+0 0  9998
2 32395  64.4789 254.9313 0014680   3.4013 143.1917  2.13103041104229
COSMOS 2456 (730)       
1 36111U 09070A   21140.19493904  .00000110  00000-0  00000+0 0  9996
2 36111  64.2738 134.5521 0006279 303.9455   1.0034  2.13099296 88957
COSMOS 2457 (733)       
1 36112U 09070B   21140.16365823  .00000110  00000-0  00000+0 0  9992
2 36112  64.2560 134.4387 0004497 197.8477 207.2651  2.13101539 88964
COSMOS 2459 (731)       
1 36400U 10007A   21140.06274659 -.00000053  00000-0  00000+0 0  9996
2 36400  65.9545  16.6556 0026340 351.3443   9.9989  2.13108265 87306
COSMOS 2461 (735)       
1 36401U 10007B   21140.05771766 -.00000053  00000-0  00000+0 0  9997
2 36401  65.9498  16.6206 0021568   9.9200 348.5103  2.13103885 87303
COSMOS 2460 (732)       
1 36402U 10007C   21139.43332139 -.00000054  00000-0  00000-0 0  9997
2 36402  65.9358  16.5985 0002041  37.6948 146.2240  2.13106515 87290
COSMOS 2464 (736)       
1 37139U 10041C   21140.05513418 -.00000003  00000-0  00000+0 0  9997
2 37139  64.0690 254.1491 0027760  12.2406 235.6684  2.13100729 83362
COSMOS 2471 (701K)      
1 37372U 11009A   21140.33804829 -.00000052  00000-0  00000+0 0  9995
2 37372  65.9323  16.4994 0014444 228.5133  85.4094  2.13051758 79587
COSMOS 2476 (744)       
1 37867U 11064A   21139.72083608  .00000109  00000-0  00000-0 0  9993
2 37867  64.5673 135.7696 0022387 242.1741 321.1800  2.13101880 74295
COSMOS 2477 (745)       
1 37868U 11064B   21139.43960940  .00000107  00000-0  00000-0 0  9993
2 37868  64.5759 135.8387 0019867 243.8407 282.0988  2.13101777 74247
COSMOS 2475 (743)       
1 37869U 11064C   21140.45692858  .00000113  00000-0  00000+0 0  9994
2 37869  64.5814 135.8132 0024339 260.9458 283.0992  2.13102028 74273
COSMOS 2485 (747)       
1 39155U 13019A   21139.51385762  .00000108  00000-0  00000-0 0  9999
2 39155  64.7335 136.1196 0022693 238.0426 210.9931  2.13101926 62768
COSMOS 2492 (754)       
1 39620U 14012A   21139.72982796 -.00000053  00000-0  00000-0 0  9993
2 39620  65.8249  16.3254 0013767 332.0109 317.5523  2.13103218 55714
COSMOS 2500 (755)       
1 40001U 14032A   21140.12601141 -.00000053  00000-0  00000+0 0  9997
2 40001  65.7635  16.2031 0004409 197.7669 255.4494  2.13102559 53946
COSMOS 2501 (702K)      
1 40315U 14075A   21140.12587693 -.00000004  00000-0  00000+0 0  9993
2 40315  63.7818 254.9648 0017024 207.8410  51.5050  2.13101451 50348
COSMOS 2514 (751)       
1 41330U 16008A   21140.20089449 -.00000053  00000-0  00000+0 0  9998
2 41330  65.5680  15.9891 0008106 213.4148 120.3296  2.13102926 41109
COSMOS 2516 (753)       
1 41554U 16032A   21140.14032059 -.00000004  00000-0  00000+0 0  9997
2 41554  64.0063 255.1302 0013210 213.9945 327.8631  2.13107000 38711
COSMOS 2522 (752)       
1 42939U 17055A   21139.92394734 -.00000002  00000-0  00000+0 0  9994
2 42939  64.2386 255.4168 0006674 241.5937 357.8753  2.13101887 28462
COSMOS 2527 (756)       
1 43508U 18053A   21140.33730956  .00000113  00000-0  00000+0 0  9995
2 43508  64.8991 136.0097 0009461 243.7864 344.8777  2.13102602 22763
COSMOS 2529 (757)       
1 43687U 18086A   21139.99230334 -.00000003  00000-0  00000+0 0  9993
2 43687  64.4538 255.6263 0008707 269.3071 338.1616  2.13102107 19778
COSMOS 2534 (758)       
1 44299U 19030A   21139.58659885  .00000000  00000-0  00000-0 0  9991
2 44299  64.5277 255.4875 0011582 290.5262 140.5425  2.13101985 15412
COSMOS 2544 (759)       
1 44850U 19088A   21139.73982911  .00000110  00000-0  00000-0 0  9995
2 44850  64.8821 135.8908 0014279 266.6653 267.4179  2.13102358 11196
COSMOS 2545 (760)       
1 45358U 20018A   21139.47212256 -.00000056  00000-0  00000-0 0  9993
2 45358  64.8993  16.9462 0007289 257.7224 281.0277  2.13102782  9135
